{
  "type": "FeatureCollection",
  "features": [
    {
      "type": "Feature",
      "properties": {
        "norad_id": 33376,
        "name": "GALAXY 19 (G-19)",
        "group": "intelsat",
        "lat": 0.009045570209032358,
        "lon": 128.06171025727062,
        "alt_km": 35798.09541894268,
        "timestamp": "2025-12-09T09:46:47.314765+00:00",
        "meta_object_name": "GALAXY 19 (G-19)",
        "meta_object_id": "2008-045A",
        "meta_epoch": "2025-12-08T21:42:09.950112",
        "meta_mean_motion": 1.00269843,
        "meta_eccentricity": 0.00033779,
        "meta_inclination": 0.0176,
        "meta_ra_of_asc_node": 311.8736,
        "meta_arg_of_pericenter": 319.5286,
        "meta_mean_anomaly": 35.0381,
        "meta_ephemeris_type": 0,
        "meta_classification_type": "U",
        "meta_norad_cat_id": 33376,
        "meta_element_set_no": 999,
        "meta_rev_at_epoch": 6299,
        "meta_bstar": 0,
        "meta_mean_motion_dot": -1.37e-06,
        "meta_mean_motion_ddot": 0,
        "tle_line1": "1 33376U 08045A   25342.90428183 -.00000137  00000+0  00000+0 0  9990",
        "tle_line2": "2 33376   0.0176 311.8736 0003377 319.5286  35.0381  1.00269843 62990"
      },
      "geometry": {
        "type": "Point",
        "coordinates": [
          128.06171025727062,
          0.009045570209032358
        ]
      }
    },
    {
      "type": "Feature",
      "properties": {
        "norad_id": 35493,
        "name": "FM-5",
        "group": "intelsat",
        "lat": -0.0055109046559647075,
        "lon": 138.94870233288836,
        "alt_km": 35783.61739913085,
        "timestamp": "2025-12-09T09:46:47.314777+00:00",
        "meta_object_name": "FM-5",
        "meta_object_id": "2009-034A",
        "meta_epoch": "2025-12-08T23:27:59.810976",
        "meta_mean_motion": 1.0027183,
        "meta_eccentricity": 7.69e-05,
        "meta_inclination": 0.0205,
        "meta_ra_of_asc_node": 287.8987,
        "meta_arg_of_pericenter": 250.7085,
        "meta_mean_anomaly": 165.2291,
        "meta_ephemeris_type": 0,
        "meta_classification_type": "U",
        "meta_norad_cat_id": 35493,
        "meta_element_set_no": 999,
        "meta_rev_at_epoch": 4473,
        "meta_bstar": 0,
        "meta_mean_motion_dot": -1.98e-06,
        "meta_mean_motion_ddot": 0,
        "tle_line1": "1 35493U 09034A   25342.97777559 -.00000198  00000+0  00000+0 0  9999",
        "tle_line2": "2 35493   0.0205 287.8987 0000769 250.7085 165.2291  1.00271830 44737"
      },
      "geometry": {
        "type": "Point",
        "coordinates": [
          138.94870233288836,
          -0.0055109046559647075
        ]
      }
    },
    {
      "type": "Feature",
      "properties": {
        "norad_id": 36097,
        "name": "INTELSAT 14 (IS-14)",
        "group": "intelsat",
        "lat": -0.009462066619275997,
        "lon": -179.9319937881182,
        "alt_km": 35785.51886580062,
        "timestamp": "2025-12-09T09:46:47.314790+00:00",
        "meta_object_name": "INTELSAT 14 (IS-14)",
        "meta_object_id": "2009-064A",
        "meta_epoch": "2025-12-09T03:05:09.354336",
        "meta_mean_motion": 1.00270456,
        "meta_eccentricity": 0.0002682,
        "meta_inclination": 0.01,
        "meta_ra_of_asc_node": 342.3099,
        "meta_arg_of_pericenter": 282.9219,
        "meta_mean_anomaly": 174.1888,
        "meta_ephemeris_type": 0,
        "meta_classification_type": "U",
        "meta_norad_cat_id": 36097,
        "meta_element_set_no": 999,
        "meta_rev_at_epoch": 5869,
        "meta_bstar": 0,
        "meta_mean_motion_dot": -2.71e-06,
        "meta_mean_motion_ddot": 0,
        "tle_line1": "1 36097U 09064A   25343.12858049 -.00000271  00000+0  00000+0 0  9997",
        "tle_line2": "2 36097   0.0100 342.3099 0002682 282.9219 174.1888  1.00270456 58699"
      },
      "geometry": {
        "type": "Point",
        "coordinates": [
          -179.9319937881182,
          -0.009462066619275997
        ]
      }
    },
    {
      "type": "Feature",
      "properties": {
        "norad_id": 36106,
        "name": "INTELSAT 15 (IS-15)",
        "group": "intelsat",
        "lat": 0.004417825049884734,
        "lon": -49.73438826571201,
        "alt_km": 35777.662745820075,
        "timestamp": "2025-12-09T09:46:47.314802+00:00",
        "meta_object_name": "INTELSAT 15 (IS-15)",
        "meta_object_id": "2009-067A",
        "meta_epoch": "2025-12-09T02:24:38.646720",
        "meta_mean_motion": 1.00273106,
        "meta_eccentricity": 0.0002572,
        "meta_inclination": 0.0293,
        "meta_ra_of_asc_node": 285.0945,
        "meta_arg_of_pericenter": 343.0358,
        "meta_mean_anomaly": 291.2788,
        "meta_ephemeris_type": 0,
        "meta_classification_type": "U",
        "meta_norad_cat_id": 36106,
        "meta_element_set_no": 999,
        "meta_rev_at_epoch": 3932,
        "meta_bstar": 0,
        "meta_mean_motion_dot": -1.83e-06,
        "meta_mean_motion_ddot": 0,
        "tle_line1": "1 36106U 09067A   25343.10044730 -.00000183  00000+0  00000+0 0  9995",
        "tle_line2": "2 36106   0.0293 285.0945 0002572 343.0358 291.2788  1.00273106 39321"
      },
      "geometry": {
        "type": "Point",
        "coordinates": [
          -49.73438826571201,
          0.004417825049884734
        ]
      }
    },
    {
      "type": "Feature",
      "properties": {
        "norad_id": 36131,
        "name": "DIRECTV 12",
        "group": "intelsat",
        "lat": 0.018012264972352497,
        "lon": 122.36961577733462,
        "alt_km": 35787.66735263538,
        "timestamp": "2025-12-09T09:46:47.314815+00:00",
        "meta_object_name": "DIRECTV 12",
        "meta_object_id": "2009-075A",
        "meta_epoch": "2025-12-08T21:40:32.604960",
        "meta_mean_motion": 1.00270047,
        "meta_eccentricity": 3.553e-05,
        "meta_inclination": 0.0409,
        "meta_ra_of_asc_node": 138.4209,
        "meta_arg_of_pericenter": 206.7884,
        "meta_mean_anomaly": 315.1057,
        "meta_ephemeris_type": 0,
        "meta_classification_type": "U",
        "meta_norad_cat_id": 36131,
        "meta_element_set_no": 999,
        "meta_rev_at_epoch": 4464,
        "meta_bstar": 0,
        "meta_mean_motion_dot": -1.01e-06,
        "meta_mean_motion_ddot": 0,
        "tle_line1": "1 36131U 09075A   25342.90315515 -.00000101  00000+0  00000+0 0  9991",
        "tle_line2": "2 36131   0.0409 138.4209 0000355 206.7884 315.1057  1.00270047 44645"
      },
      "geometry": {
        "type": "Point",
        "coordinates": [
          122.36961577733462,
          0.018012264972352497
        ]
      }
    },
    {
      "type": "Feature",
      "properties": {
        "norad_id": 36397,
        "name": "INTELSAT 16 (IS-16)",
        "group": "intelsat",
        "lat": -0.004317910176753842,
        "lon": 148.86709255951544,
        "alt_km": 35790.372788290144,
        "timestamp": "2025-12-09T09:46:47.314827+00:00",
        "meta_object_name": "INTELSAT 16 (IS-16)",
        "meta_object_id": "2010-006A",
        "meta_epoch": "2025-12-09T03:56:38.639904",
        "meta_mean_motion": 1.00270336,
        "meta_eccentricity": 0.0002298,
        "meta_inclination": 0.0156,
        "meta_ra_of_asc_node": 308.0458,
        "meta_arg_of_pericenter": 314.2167,
        "meta_mean_anomaly": 158.8579,
        "meta_ephemeris_type": 0,
        "meta_classification_type": "U",
        "meta_norad_cat_id": 36397,
        "meta_element_set_no": 999,
        "meta_rev_at_epoch": 5774,
        "meta_bstar": 0,
        "meta_mean_motion_dot": -2.42e-06,
        "meta_mean_motion_ddot": 0,
        "tle_line1": "1 36397U 10006A   25343.16433611 -.00000242  00000+0  00000+0 0  9994",
        "tle_line2": "2 36397   0.0156 308.0458 0002298 314.2167 158.8579  1.00270336 57743"
      },
      "geometry": {
        "type": "Point",
        "coordinates": [
          148.86709255951544,
          -0.004317910176753842
        ]
      }
    },
    {
      "type": "Feature",
      "properties": {
        "norad_id": 37185,
        "name": "XM-5",
        "group": "intelsat",
        "lat": -0.0037192509277351833,
        "lon": 109.88560745784821,
        "alt_km": 35781.60713053129,
        "timestamp": "2025-12-09T09:46:47.314839+00:00",
        "meta_object_name": "XM-5",
        "meta_object_id": "2010-053A",
        "meta_epoch": "2025-12-09T01:02:28.260960",
        "meta_mean_motion": 1.00269679,
        "meta_eccentricity": 0.000175,
        "meta_inclination": 0.0636,
        "meta_ra_of_asc_node": 272.6513,
        "meta_arg_of_pericenter": 243.8809,
        "meta_mean_anomaly": 181.9359,
        "meta_ephemeris_type": 0,
        "meta_classification_type": "U",
        "meta_norad_cat_id": 37185,
        "meta_element_set_no": 999,
        "meta_rev_at_epoch": 5557,
        "meta_bstar": 0,
        "meta_mean_motion_dot": -2.1e-07,
        "meta_mean_motion_ddot": 0,
        "tle_line1": "1 37185U 10053A   25343.04338265 -.00000021  00000+0  00000+0 0  9993",
        "tle_line2": "2 37185   0.0636 272.6513 0001750 243.8809 181.9359  1.00269679 55572"
      },
      "geometry": {
        "type": "Point",
        "coordinates": [
          109.88560745784821,
          -0.0037192509277351833
        ]
      }
    }
  ]
}